ONEWEB-0365             
1 49291U 21090N   26200.78792362 -.00000001  00000+0 -35913-4 0  9998
2 49291  87.9193 298.4773 0002072 101.5209 258.6156 13.19726341230727
ONEWEB-0366             
1 49292U 21090P   26201.16654520 -.00000042  00000+0 -14863-3 0  9990
2 49292  87.8964 283.1359 0002013  98.4233 261.7125 13.14502495231897
ONEWEB-0367             
1 49293U 21090Q   26200.89008222  .00000098  00000+0  20896-3 0  9994
2 49293  87.9179 267.9242 0002200  99.9699 260.1683 13.20773691234146
ONEWEB-0368             
1 49294U 21090R   26201.09127811 -.00000422  00000+0 -10706-2 0  9995
2 49294  87.9176 267.8909 0001688  99.6916 260.4408 13.20774546235320
ONEWEB-0369             
1 49295U 21090S   26201.23808520  .00000064  00000+0  12863-3 0  9992
2 49295  87.9184 298.3926 0002002 102.9026 257.2331 13.19726687230773
ONEWEB-0370             
1 49296U 21090T   26201.12662278  .00000044  00000+0  76046-4 0  9991
2 49296  87.9179 267.8763 0002264  92.6165 267.5227 13.20772815234214
ONEWEB-0371             
1 49297U 21090U   26201.24598602  .00000032  00000+0  46673-4 0  9994
2 49297  87.9193 298.3858 0002090 100.1989 259.9380 13.19725351230819
ONEWEB-0372             
1 49298U 21090V   26201.19213813  .00000043  00000+0  72914-4 0  9996
2 49298  87.9182 267.8654 0002068  98.7272 261.4096 13.20769962234190
ONEWEB-0373             
1 49299U 21090W   26201.14176312 -.00000078  00000+0 -22374-3 0  9998
2 49299  87.9177 267.8751 0002028  95.5221 264.6143 13.20771052235370
ONEWEB-0374             
1 49300U 21090X   26201.15384631  .00000156  00000+0  38544-3 0  9998
2 49300  87.8967 283.1303 0001476  91.9150 268.2149 13.14502531231896
ONEWEB-0375             
1 49301U 21090Y   26201.12998120 -.00000107  00000+0 -29399-3 0  9996
2 49301  87.9180 267.8696 0001574  87.0894 273.0420 13.20771478234871
ONEWEB-0376             
1 49302U 21090Z   26201.24439742 -.00000128  00000+0 -35192-3 0  9991
2 49302  87.9191 298.3860 0002089 105.1394 254.9970 13.19724571230813
ONEWEB-0377             
1 49303U 21090AA  26201.19240013  .00000027  00000+0  35276-4 0  9997
2 49303  87.9181 267.8592 0001751  95.4366 264.6967 13.20770210234878
ONEWEB-0378             
1 49304U 21090AB  26201.13686771  .00000133  00000+0  29461-3 0  9993
2 49304  87.9175 267.8736 0001918  98.3160 261.8191 13.20772610234134
ONEWEB-0379             
1 49305U 21090AC  26201.22521520  .00000254  00000+0  65044-3 0  9995
2 49305  87.8967 283.1261 0001883  99.6658 260.4685 13.14502470231907
ONEWEB-0380             
1 49306U 21090AD  26201.24124453  .00000077  00000+0  15996-3 0  9996
2 49306  87.9185 298.3897 0001950  94.9118 265.2238 13.19727035230781
ONEWEB-0381             
1 49307U 21090AE  26201.18889902 -.00000008  00000+0 -52410-4 0  9996
2 49307  87.9180 267.8644 0001812  94.2788 265.8552 13.20769999234181
ONEWEB-0382             
1 49308U 21090AF  26200.72090713 -.00000088  00000+0 -24856-3 0  9990
2 49308  87.9183 267.9517 0001745  98.3002 261.8329 13.20771867234112
ONEWEB-0383             
1 49309U 21090AG  26200.76216430  .00000213  00000+0  53967-3 0  9994
2 49309  87.8968 283.2106 0001891 102.8809 257.2532 13.14502618231870
ONEWEB-0384             
1 49310U 21090AH  26201.16304027 -.00000004  00000+0 -41510-4 0  9993
2 49310  87.9177 267.9071 0001578 102.0312 258.0998 13.20814419234182
ONEWEB-0385             
1 49311U 21090AJ  26200.94143654  .00000016  00000+0  81788-5 0  9999
2 49311  87.9177 267.9132 0001861  97.2980 262.8365 13.20770000234124
ONEWEB-0386             
1 49312U 21090AK  26201.10977333  .00000027  00000+0  35097-4 0  9991
2 49312  87.9186 267.8720 0001782  98.2461 261.8875 13.20770293234167
ONEWEB-0387             
1 49313U 21090AL  26200.71584823  .00000021  00000+0  20086-4 0  9992
2 49313  87.9171 267.9683 0001895  87.8740 272.2610 13.20770363234116
ONEWEB-0388             
1 49314U 21090AM  26201.23650758 -.00000106  00000+0 -29600-3 0  9998
2 49314  87.9185 298.3888 0001873 100.3892 259.7452 13.19724887230772
ONEWEB-0389             
1 50469U 21132A   26201.15500423 -.00000074  00000+0 -22324-3 0  9992
2 50469  87.9150 359.3097 0001678  84.8750 275.2573 13.17647874222427
ONEWEB-0390             
1 50470U 21132B   26201.00481983 -.00000037  00000+0 -12730-3 0  9996
2 50470  87.9151 359.3406 0002070  89.8033 270.3336 13.17647525222404
ONEWEB-0391             
1 50471U 21132C   26200.93057005  .00000008  00000+0 -13646-4 0  9997
2 50471  87.9153 359.3652 0001846  68.1853 291.9475 13.17647226222399
ONEWEB-0392             
1 50472U 21132D   26200.96094711 -.00000163  00000+0 -45406-3 0  9997
2 50472  87.9160 359.3302 0001677  83.1498 276.9825 13.17648754222438
ONEWEB-0393             
1 50473U 21132E   26200.93649487  .00000002  00000+0 -28657-4 0  9992
2 50473  87.9151 359.3490 0001764  89.1970 270.9363 13.17647727222424
ONEWEB-0394             
1 50474U 21132F   26200.87676237 -.00000014  00000+0 -68522-4 0  9998
2 50474  87.9200 328.9431 0001758  99.8682 260.2649 13.18684851225903
